{"epoch":1784902576,"count":18312,"objects":[{"id":"35682","name":"DUBAISAT 1","type":"PAYLOAD","l1":"1 35682U 09041B   26205.32804318  .00000864  00000-0  13536-3 0  9991","l2":"2 35682  98.0094 338.1891 0009314 317.1393  42.9089 14.75178615910572"},{"id":"35931","name":"OCEANSAT 2","type":"PAYLOAD","l1":"1 35931U 09051A   26205.22936977  .00000207  00000-0  16678-3 0  9996","l2":"2 35931  98.2337 188.3826 0017856 127.7858 232.4929 13.99657500884518"},{"id":"35946","name":"WORLDVIEW 2","type":"PAYLOAD","l1":"1 35946U 09055A   26205.32262536  .00000101  00000-0  47964-4 0  9996","l2":"2 35946  98.4750 278.2664 0005565 108.1831 251.9963 14.37908998880986"},{"id":"36036","name":"SMOS","type":"PAYLOAD","l1":"1 36036U 09059A   26205.09205821  .00000274  00000-0  10134-3 0  9998","l2":"2 36036  98.4431  31.8864 0001230  98.8199 261.3129 14.39740152878765"},{"id":"36110","name":"YAOGAN 7","type":"PAYLOAD","l1":"1 36110U 09069A   26205.25534273  .00000428  00000-0  66401-4 0  9996","l2":"2 36110  98.0020  90.8849 0023149 280.5953  79.2651 14.78042051895106"},{"id":"36605","name":"TANDEM X","type":"PAYLOAD","l1":"1 36605U 10030A   26203.49713300  .00000152  00000-0  10451-4 0  9997","l2":"2 36605  97.4465 210.7021 0001823 100.4354 259.7087 15.19149439892004"},{"id":"36795","name":"CARTOSAT 2B","type":"PAYLOAD","l1":"1 36795U 10035A   26205.28790815  .00000327  00000-0  51666-4 0  9994","l2":"2 36795  97.9936 255.5955 0012694  74.1260 286.1349 14.78657684865337"},{"id":"36834","name":"YAOGAN 10","type":"PAYLOAD","l1":"1 36834U 10038A   26205.33907978  .00001379  00000-0  16625-3 0  9990","l2":"2 36834  97.8978 228.4477 0001584  84.8363   6.3019 14.85450690862724"},{"id":"37216","name":"SKYMED 4","type":"PAYLOAD","l1":"1 37216U 10060A   26205.30451756 -.00000141  00000-0 -11211-4 0  9990","l2":"2 37216  97.8905  28.3682 0001535  87.1403 272.9986 14.82155805850066"},{"id":"37387","name":"RESOURCESAT 2","type":"PAYLOAD","l1":"1 37387U 11015A   26205.25117079  .00000061  00000-0  47999-4 0  9992","l2":"2 37387  98.7625 272.4329 0012044 146.2211 213.9736 14.21601163791445"},{"id":"37781","name":"HAIYANG 2A","type":"PAYLOAD","l1":"1 37781U 11043A   26205.32883836  .00000232  00000-0  29847-3 0  9991","l2":"2 37781  99.3413 207.1440 0001461   3.4467 356.6691 13.73034706751756"},{"id":"37791","name":"RASAT","type":"PAYLOAD","l1":"1 37791U 11044D   26205.31670934  .00000644  00000-0  11993-3 0  9995","l2":"2 37791  98.0576 296.1476 0021951  75.9487 325.8959 14.68200327798634"},{"id":"37841","name":"SRMSAT","type":"PAYLOAD","l1":"1 37841U 11058D   26205.32644723  .00000373  00000-0  58316-4 0  9994","l2":"2 37841  19.9702 194.6722 0011544 252.2420 137.2725 14.11582557763075"},{"id":"38012","name":"PLEIADES 1","type":"PAYLOAD","l1":"1 38012U 11076F   26205.31305653  .00000182  00000-0  48972-4 0  9995","l2":"2 38012  98.1962 279.9141 0001577  77.6551  10.6688 14.58550395777404"},{"id":"38038","name":"ZY 1","type":"PAYLOAD","l1":"1 38038U 11079A   26205.30053047  .00000404  00000-0  14702-3 0  9992","l2":"2 38038  98.4054 271.8303 0006225 184.9341 262.3543 14.38241442764547"},{"id":"38338","name":"KOMPSAT 3","type":"PAYLOAD","l1":"1 38338U 12025B   26205.32697310  .00000493  00000-0  10700-3 0  9998","l2":"2 38338  98.1197 162.1512 0005612  13.4452 346.6898 14.62235793756771"},{"id":"38709","name":"EXACTVIEW-1","type":"PAYLOAD","l1":"1 38709U 12039C   26205.31454348  .00000102  00000-0  63422-4 0  9993","l2":"2 38709  98.9811 323.5497 0011807  67.4439 292.7987 14.24994305727997"},{"id":"38755","name":"SPOT 6","type":"PAYLOAD","l1":"1 38755U 12047A   26205.31167163  .00000372  00000-0  89828-4 0  9996","l2":"2 38755  98.2101 272.1819 0001155  95.0267 265.1064 14.58542930738465"},{"id":"39019","name":"PLEIADES 1B","type":"PAYLOAD","l1":"1 39019U 12068A   26205.33029698  .00000363  00000-0  87888-4 0  9999","l2":"2 39019  98.1933 279.8672 0001454  77.9253 282.2109 14.58538563726260"},{"id":"39030","name":"GOKTURK 2","type":"PAYLOAD","l1":"1 39030U 12073A   26205.24190122  .00000549  00000-0  87473-4 0  9995","l2":"2 39030  97.6818  40.8147 0001207 110.1486 249.9854 14.75574120729972"},{"id":"39084","name":"LANDSAT 8","type":"PAYLOAD","l1":"1 39084U 13008A   26205.24385810  .00000291  00000-0  74681-4 0  9994","l2":"2 39084  98.2283 274.9353 0001336  91.5487 268.5865 14.57099015703290"},{"id":"39086","name":"SARAL","type":"PAYLOAD","l1":"1 39086U 13009A   26205.26005539  .00000067  00000-0  40611-4 0  9993","l2":"2 39086  98.5559  31.3591 0002218 146.5456 213.5869 14.32897455700914"},{"id":"39150","name":"GAOFEN 1","type":"PAYLOAD","l1":"1 39150U 13018A   26205.33529811  .00000277  00000-0  46953-4 0  9995","l2":"2 39150  97.9079 276.6444 0017825 142.5788 217.6667 14.76525685713726"},{"id":"39160","name":"VNREDSAT 1","type":"PAYLOAD","l1":"1 39160U 13021B   26205.31591108  .00000332  00000-0  70680-4 0  9992","l2":"2 39160  97.9063 257.3032 0001508  81.2410 278.8964 14.64890007705721"},{"id":"39227","name":"KOMPSAT 5","type":"PAYLOAD","l1":"1 39227U 13042A   26205.27776600  .00001269  00000-0  94980-4 0  9995","l2":"2 39227  97.6201  31.4568 0004252  29.7325 330.4142 15.04507525709432"},{"id":"39418","name":"SKYSAT 1","type":"PAYLOAD","l1":"1 39418U 13066C   26205.09337403  .00003538  00000-0  20212-3 0  9994","l2":"2 39418  97.3797 253.3141 0021359 181.9217 178.1937 15.13153767694067"},{"id":"39419","name":"DUBAISAT 2","type":"PAYLOAD","l1":"1 39419U 13066D   26205.23894880  .00003145  00000-0  19503-3 0  9993","l2":"2 39419  97.4593 194.4226 0009142 265.4083  94.6103 15.10424402691986"},{"id":"39574","name":"GPM","type":"PAYLOAD","l1":"1 39574U 14009C   26205.30198643  .00007230  00000-0  15680-3 0  9996","l2":"2 39574  64.9698 183.7625 0010813 264.5117  95.4791 15.45132244703548"},{"id":"39634","name":"SENTINEL 1A","type":"PAYLOAD","l1":"1 39634U 14016A   26204.71044689  .00000035  00000-0  17216-4 0  9999","l2":"2 39634  98.1701 211.7058 0001398  88.9672 271.1688 14.59174326655346"},{"id":"39731","name":"KAZEOSAT 1","type":"PAYLOAD","l1":"1 39731U 14024A   26205.28180645  .00000088  00000-0  39665-4 0  9992","l2":"2 39731  98.3190 276.8022 0001206  89.6612 270.4715 14.42039650643905"}]}