OBJECT_NAME,OBJECT_ID,EPOCH,MEAN_MOTION,ECCENTRICITY,INCLINATION,RA_OF_ASC_NODE,ARG_OF_PERICENTER,MEAN_ANOMALY,EPHEMERIS_TYPE,CLASSIFICATION_TYPE,NORAD_CAT_ID,ELEMENT_SET_NO,REV_AT_EPOCH,BSTAR,MEAN_MOTION_DOT,MEAN_MOTION_DDOT
DUBAISAT-1,2009-041B,2026-07-24T07:52:22.930752,14.75178615,.00093137,98.0094,338.1891,317.1393,42.9089,0,U,35682,999,91057,.1353613E-3,.864E-5,0
OCEANSAT-2,2009-051A,2026-07-24T05:30:17.548128,13.99657500,.0017856,98.2337,188.3826,127.7858,232.4929,0,U,35931,999,88451,.16677713E-3,.207E-5,0
WORLDVIEW-2 (WV-2),2009-055A,2026-07-24T07:44:34.831104,14.37908998,.00055649,98.4750,278.2664,108.1831,251.9963,0,U,35946,999,88098,.4796384E-4,.101E-5,0
SMOS,2009-059A,2026-07-24T02:12:33.829344,14.39740152,.00012296,98.4431,31.8864,98.8199,261.3129,0,U,36036,999,87876,.1013405E-3,.274E-5,0
YAOGAN-7,2009-069A,2026-07-24T06:07:41.611872,14.78042051,.00231492,98.0020,90.8849,280.5953,79.2651,0,U,36110,999,89510,.66400993E-4,.428E-5,0
TANDEM-X,2010-030A,2026-07-22T11:55:52.291200,15.19149439,.00018225,97.4465,210.7021,100.4354,259.7087,0,U,36605,999,89200,.10450617E-4,.152E-5,0
CARTOSAT-2B,2010-035A,2026-07-24T06:54:35.264160,14.78657684,.00126938,97.9936,255.5955,74.1260,286.1349,0,U,36795,999,86533,.51666153E-4,.327E-5,0
YAOGAN-10,2010-038A,2026-07-24T08:08:16.492992,14.85450690,.00015838,97.8978,228.4477,84.8363,6.3019,0,U,36834,999,86272,.16624529E-3,.1379E-4,0
COSMO-SKYMED 4,2010-060A,2026-07-24T07:18:30.317184,14.82155805,.00015352,97.8905,28.3682,87.1403,272.9986,0,U,37216,999,85006,-.1121128E-4,-.141E-5,0
RESOURCESAT-2,2011-015A,2026-07-24T06:01:41.156256,14.21601163,.0012044,98.7625,272.4329,146.2211,213.9736,0,U,37387,999,79144,.4799925E-4,.61E-6,0
HAIYANG-2A,2011-043A,2026-07-24T07:53:31.634304,13.73034706,.00014609,99.3413,207.1440,3.4467,356.6691,0,U,37781,999,75175,.29847376E-3,.232E-5,0
RASAT,2011-044D,2026-07-24T07:36:03.686976,14.68200327,.0021951,98.0576,296.1476,75.9487,325.8959,0,U,37791,999,79863,.11993199E-3,.644E-5,0
SRMSAT,2011-058D,2026-07-24T07:50:05.040672,14.11582557,.0011544,19.9702,194.6722,252.2420,137.2725,0,U,37841,999,76307,.58315649E-4,.373E-5,0
PLEIADES 1A,2011-076F,2026-07-24T07:30:48.084192,14.58550395,.0001577,98.1962,279.9141,77.6551,10.6688,0,U,38012,999,77740,.48972474E-4,.182E-5,0
ZIYUAN 1-02C (ZY 1-02C),2011-079A,2026-07-24T07:12:45.832608,14.38241442,.00062251,98.4054,271.8303,184.9341,262.3543,0,U,38038,999,76454,.14701681E-3,.404E-5,0
ARIRANG-3 (KOMPSAT-3),2012-025B,2026-07-24T07:50:50.475840,14.62235793,.00056123,98.1197,162.1512,13.4452,346.6898,0,U,38338,999,75677,.10700298E-3,.493E-5,0
EXACTVIEW-1 (ADS-1B),2012-039C,2026-07-24T07:32:56.556672,14.24994305,.00118074,98.9811,323.5497,67.4439,292.7987,0,U,38709,999,72799,.63422023E-4,.102E-5,0
SPOT 6,2012-047A,2026-07-24T07:28:48.428832,14.58542930,.00011549,98.2101,272.1819,95.0267,265.1064,0,U,38755,999,73846,.89827782E-4,.372E-5,0
PLEIADES 1B,2012-068A,2026-07-24T07:55:37.659072,14.58538563,.00014536,98.1933,279.8672,77.9253,282.2109,0,U,39019,999,72626,.87888176E-4,.363E-5,0
GOKTURK 2,2012-073A,2026-07-24T05:48:20.265408,14.75574120,.00012066,97.6818,40.8147,110.1486,249.9854,0,U,39030,999,72997,.87473464E-4,.549E-5,0
LANDSAT 8,2013-008A,2026-07-24T05:51:09.339840,14.57099015,.0001336,98.2283,274.9353,91.5487,268.5865,0,U,39084,999,70329,.74680566E-4,.291E-5,0
SARAL,2013-009A,2026-07-24T06:14:28.785696,14.32897455,.00022181,98.5559,31.3591,146.5456,213.5869,0,U,39086,999,70091,.40611015E-4,.67E-6,0
GAOFEN-1,2013-018A,2026-07-24T08:02:49.756704,14.76525685,.00178247,97.9079,276.6444,142.5788,217.6667,0,U,39150,999,71372,.46952706E-4,.277E-5,0
VNREDSAT 1,2013-021B,2026-07-24T07:34:54.717312,14.64890007,.00015082,97.9063,257.3032,81.2410,278.8964,0,U,39160,999,70572,.70679896E-4,.332E-5,0
ARIRANG-5 (KOMPSAT-5),2013-042A,2026-07-24T06:39:58.982400,15.04507525,.00042522,97.6201,31.4568,29.7325,330.4142,0,U,39227,999,70943,.94979964E-4,.1269E-4,0
SKYSAT-A,2013-066C,2026-07-24T02:14:27.516192,15.13153767,.00213585,97.3797,253.3141,181.9217,178.1937,0,U,39418,999,69406,.20212156E-3,.3538E-4,0
DUBAISAT-2,2013-066D,2026-07-24T05:44:05.176320,15.10424402,.00091415,97.4593,194.4226,265.4083,94.6103,0,U,39419,999,69198,.19503113E-3,.3145E-4,0
GPM-CORE,2014-009C,2026-07-24T07:14:51.627552,15.45132244,.00108132,64.9698,183.7625,264.5117,95.4791,0,U,39574,999,70354,.15679656E-3,.723E-4,0
SENTINEL-1A,2014-016A,2026-07-23T17:03:02.611296,14.59174326,.00013976,98.1701,211.7058,88.9672,271.1688,0,U,39634,999,65534,.1721564E-4,.35E-6,0
KAZEOSAT 1,2014-024A,2026-07-24T06:45:48.077280,14.42039650,.00012055,98.3190,276.8022,89.6612,270.4715,0,U,39731,999,64390,.39665069E-4,.88E-6,0
